     2.100          NAVIGATION                              RINEX VERSION / TYPE
fic2rin                                 01/31/2018 00:08:37 PGM / RUN BY / DATE
                                                            END OF HEADER
17 18  1 30 20  0  0.0 -.127017498016D-03  .284217094304D-11  .000000000000D+00
     .720000000000D+02  .140625000000D+01  .448840124564D-08 -.132659387391D+01
     .340864062309D-06  .123752964428D-01 -.208616256714D-06  .515374988174D+04
     .244800000000D+06  .782310962677D-07 -.162189925909D+01  .234693288803D-06
     .981613443477D+00  .395750000000D+03 -.179629992171D+01 -.850642575535D-08
    -.525021869268D-10  .100000000000D+01  .198600000000D+04  .000000000000D+00
     .240000000000D+01  .000000000000D+00 -.111758708954D-07  .720000000000D+02
     .237606000000D+06  .400000000000D+01
19 18  1 30 20  0  0.0 -.460327602923D-03  .250111042988D-11  .000000000000D+00
     .410000000000D+02 -.143750000000D+02  .451411660250D-08  .169109234524D+01
    -.104121863842D-05  .971617188770D-02 -.113621354103D-06  .515369458008D+04
     .244800000000D+06 -.175088644028D-06 -.157461986361D+01 -.212341547012D-06
     .979042985230D+00  .396437500000D+03  .111759252305D+01 -.852356932659D-08
    -.124290891500D-09  .100000000000D+01  .198600000000D+04  .000000000000D+00
     .240000000000D+01  .000000000000D+00 -.153668224812D-07  .410000000000D+02
     .237606000000D+06  .400000000000D+01
20 18  1 30 20  0  0.0  .499659217894D-03  .102318153949D-11  .000000000000D+00
     .680000000000D+02 -.266250000000D+02  .490734726785D-08 -.238844199133D+01
    -.123120844364D-05  .451253145002D-02  .125840306282D-04  .515378688812D+04
     .244800000000D+06  .335276126862D-07  .318569647670D+00  .912696123123D-07
     .928278302997D+00  .112656250000D+03  .177593637415D+01 -.804283501636D-08
     .742173771659D-09  .100000000000D+01  .198600000000D+04  .000000000000D+00
     .240000000000D+01  .000000000000D+00 -.838190317154D-08  .680000000000D+02
     .237606000000D+06  .400000000000D+01
22 18  1 30 20  0  0.0 -.274834223092D-03 -.129602995003D-10  .000000000000D+00
     .730000000000D+02 -.496875000000D+01  .506663961731D-08 -.190348631285D+01
    -.137835741043D-06  .723006762564D-02  .115558505058D-04  .515360807610D+04
     .244800000000D+06  .987201929092D-07  .368925526223D+00  .949949026108D-07
     .924958072902D+00  .132906250000D+03 -.161984303264D+01 -.813783897366D-08
     .672528013491D-09  .100000000000D+01  .198600000000D+04  .000000000000D+00
     .240000000000D+01  .000000000000D+00 -.176951289177D-07  .730000000000D+02
     .237606000000D+06  .400000000000D+01
23 18  1 30 20  0  0.0 -.219041481614D-03  .000000000000D+00  .000000000000D+00
     .540000000000D+02  .715625000000D+01  .556880339159D-08 -.259235257307D+01
     .121071934700D-06  .119430152699D-01  .439584255219D-05  .515359291458D+04
     .244800000000D+06  .165775418282D-06  .145820502096D+01 -.230967998505D-06
     .943263332761D+00  .286937500000D+03 -.240039510143D+01 -.843963725905D-08
     .211437378644D-09  .100000000000D+01  .198600000000D+04  .000000000000D+00
     .240000000000D+01  .000000000000D+00 -.200234353542D-07  .540000000000D+02
     .237606000000D+06  .400000000000D+01
24 18  1 30 20  0  0.0 -.454541295767D-04 -.454747350886D-12  .000000000000D+00
     .450000000000D+02 -.161250000000D+02  .494806324955D-08  .310918208683D+01
    -.908970832825D-06  .674885429908D-02  .110901892185D-04  .515365912628D+04
     .244800000000D+06 -.651925802231D-07  .247943616441D+01 -.128522515297D-06
     .942750679453D+00  .155312500000D+03  .518730746966D+00 -.800140471919D-08
    -.790032908042D-09  .100000000000D+01  .198600000000D+04  .000000000000D+00
     .240000000000D+01  .000000000000D+00  .279396772385D-08  .450000000000D+02
     .237606000000D+06  .400000000000D+01
25 18  1 30 20  0  0.0 -.530841294676D-03 -.613908923697D-11  .000000000000D+00
     .770000000000D+02  .158187500000D+03  .394230707006D-08  .114940300959D+01
     .829435884953D-05  .707525573671D-02  .106841325760D-04  .515370451355D+04
     .244800000000D+06 -.763684511185D-07 -.271503093605D+01  .104308128357D-06
     .975625178499D+00  .180093750000D+03  .806934359758D+00 -.793640201157D-08
     .124648049234D-09  .100000000000D+01  .198600000000D+04  .000000000000D+00
     .240000000000D+01  .000000000000D+00  .558793544769D-08  .770000000000D+02
     .237606000000D+06  .400000000000D+01
26 18  1 30 20  0  0.0 -.268260948360D-03  .137561073643D-10  .000000000000D+00
     .102000000000D+03  .134406250000D+03  .443375611231D-08  .660899602630D+00
     .706501305103D-05  .261324620806D-02  .973977148533D-05  .515360586357D+04
     .244800000000D+06  .428408384323D-07 -.273486852653D+01 -.186264514923D-07
     .957238899311D+00  .184625000000D+03 -.959479545603D-02 -.804497796277D-08
     .760745973838D-10  .100000000000D+01  .198600000000D+04  .000000000000D+00
     .340000000000D+01  .000000000000D+00  .745058059692D-08  .102000000000D+03
     .237606000000D+06  .400000000000D+01
27 18  1 30 20  0  0.0  .365138985217D-03  .170530256582D-11  .000000000000D+00
     .460000000000D+02  .208125000000D+02  .443447042778D-08 -.117154493157D+01
     .109896063805D-05  .540856469888D-02 -.188127160072D-06  .515367552567D+04
     .244800000000D+06  .128522515297D-06 -.167532246871D+01 -.819563865662D-07
     .976413882986D+00  .392000000000D+03  .350585630316D+00 -.841285042899D-08
     .278583032673D-10  .100000000000D+01  .198600000000D+04  .000000000000D+00
     .240000000000D+01  .000000000000D+00  .186264514923D-08  .460000000000D+02
     .237606000000D+06  .400000000000D+01
28 18  1 30 20  0  0.0  .684450846165D-03  .341060513165D-11  .000000000000D+00
     .720000000000D+02  .137687500000D+03  .393766401951D-08 -.357104451794D+00
     .730901956558D-05  .198079933180D-01  .855512917042D-05  .515367343140D+04
     .244800000000D+06 -.258907675743D-06 -.263352840953D+01  .124797224998D-06
     .987148592987D+00  .235593750000D+03 -.152876708537D+01 -.814426781287D-08
     .262868092368D-09  .100000000000D+01  .198600000000D+04  .000000000000D+00
     .485000000000D+01  .000000000000D+00 -.111758708954D-07  .720000000000D+02
     .237606000000D+06  .400000000000D+01
29 18  1 30 20  0  0.0  .503588002175D-03 -.557065504836D-11  .000000000000D+00
     .770000000000D+02  .934375000000D+01  .443732768965D-08  .199494609911D+00
     .407919287682D-06  .468592625111D-03 -.614672899246D-06  .515374148178D+04
     .244800000000D+06 -.335276126862D-07 -.161145157508D+01  .540167093277D-07
     .982837867874D+00  .403000000000D+03  .721970760706D+00 -.849392523465D-08
    -.135719938995D-10  .100000000000D+01  .198600000000D+04  .000000000000D+00
     .240000000000D+01  .000000000000D+00 -.102445483208D-07  .770000000000D+02
     .237606000000D+06  .400000000000D+01
30 18  1 30 20  0  0.0  .107971485704D-03 -.341060513165D-11  .000000000000D+00
     .690000000000D+02 -.812500000000D+00  .490091842864D-08  .233168208355D+01
     .372529029846D-08  .306741078384D-02  .111442059278D-04  .515357699585D+04
     .244800000000D+06 -.391155481339D-07  .257243117787D+01  .912696123123D-07
     .945427428939D+00  .159187500000D+03 -.311460784518D+01 -.804497796277D-08
    -.654312969047D-09  .100000000000D+01  .198600000000D+04  .000000000000D+00
     .240000000000D+01  .000000000000D+00  .372529029846D-08  .690000000000D+02
     .237606000000D+06  .400000000000D+01
31 18  1 30 20  0  0.0  .145070254803D-03 -.261479726760D-11  .000000000000D+00
     .770000000000D+02 -.146562500000D+02  .444875673715D-08  .196854677685D+01
    -.409781932831D-06  .882691831794D-02  .115986913443D-04  .515360117531D+04
     .244800000000D+06 -.335276126862D-07  .254914168882D+01  .111758708954D-06
     .964451192235D+00  .158312500000D+03 -.161699623941D+00 -.780782522726D-08
    -.859321508476D-09  .100000000000D+01  .198600000000D+04  .000000000000D+00
     .240000000000D+01  .000000000000D+00 -.135041773319D-07  .770000000000D+02
     .237606000000D+06  .400000000000D+01
32 18  1 30 20  0  0.0 -.532967504114D-03  .227373675443D-12  .000000000000D+00
     .840000000000D+02  .896875000000D+01  .529486340946D-08 -.438497186311D+00
     .480562448502D-06  .163374666590D-02  .464916229248D-05  .515361594582D+04
     .244800000000D+06 -.745058059692D-08  .146314063885D+01  .279396772385D-07
     .956838968229D+00  .288093750000D+03 -.269407510562D+01 -.836534845034D-08
     .163578242262D-09  .100000000000D+01  .198600000000D+04  .000000000000D+00
     .240000000000D+01  .000000000000D+00  .465661287308D-09  .840000000000D+02
     .237606000000D+06  .400000000000D+01
 3 18  1 30 19 59 44.0 -.292900949717D-06  .716227077646D-11  .000000000000D+00
     .440000000000D+02 -.281250000000D+01  .432768026525D-08  .188879615471D+01
    -.191852450371D-06  .119178055320D-02  .116955488920D-04  .515357131958D+04
     .244784000000D+06 -.316649675369D-07  .424135166544D+00  .186264514923D-08
     .960948909299D+00  .150687500000D+03  .525624476312D+00 -.784746973576D-08
     .682171272315D-09  .100000000000D+01  .198600000000D+04  .000000000000D+00
     .240000000000D+01  .000000000000D+00  .232830643654D-08  .440000000000D+02
     .240606000000D+06  .400000000000D+01
26 18  1 30 19 59 44.0 -.268260948360D-03  .137561073643D-10  .000000000000D+00
     .510000000000D+02  .134406250000D+03  .443375611231D-08  .658564564475D+00
     .706501305103D-05  .261323724408D-02  .973977148533D-05  .515360586548D+04
     .244784000000D+06  .428408384323D-07 -.273486840510D+01 -.186264514923D-07
     .957238900774D+00  .184625000000D+03 -.959360610363D-02 -.804497796277D-08
     .760745973838D-10  .100000000000D+01  .198600000000D+04  .000000000000D+00
     .240000000000D+01  .000000000000D+00  .745058059692D-08  .510000000000D+02
     .240756000000D+06  .400000000000D+01
